NORAD_CAT_ID,OBJECT_NAME,OBJECT_TYPE,EPOCH,MEAN_MOTION,ECCENTRICITY,INCLINATION,RA_OF_ASC_NODE,ARG_OF_PERICENTER,MEAN_ANOMALY,BSTAR,MEAN_MOTION_DOT,MEAN_MOTION_DDOT,TLE_LINE0,TLE_LINE1,TLE_LINE2,SEMIMAJOR_AXIS,PERIOD,APOGEE,PERIGEE,DECAYED
55308.0,STARLINK-5292,PAYLOAD,2023-10-11 22:00:00,14.98334228,0.0003173,70.0018,62.7092,274.1585,311.4225,9.4347e-05,1.033e-05,0.0,0 STARLINK-5292,1 55308U 23010AR  23284.91667824  .00001033  00000-0  94347-4 0  9997,2 55308  70.0018  62.7092 0003173 274.1585 311.4225 14.98334228 41671,6950.18,96.107,574.25,569.84,0.0
55308.0,STARLINK-5292,PAYLOAD,2023-10-12 14:00:01,14.98376641,0.0003186,70.0023,61.0285,270.287,310.2718,-0.0051598,-0.00061199,0.0,0 STARLINK-5292,1 55308U 23010AR  23285.58334491 -.00061199  00000-0 -51598-2 0  9992,2 55308  70.0023  61.0285 0003186 270.2870 310.2718 14.98376641  5692,6950.049,96.104,574.128,569.699,0.0
55308.0,STARLINK-5292,PAYLOAD,2023-10-12 19:25:39,14.98371972,0.0003197,70.0005,60.4583,278.834,81.2457,-0.00034442,-4.205e-05,0.0,0 STARLINK-5292,1 55308U 23010AR  23285.80948079 -.00004205  00000-0 -34442-3 0  9995,2 55308  70.0005  60.4583 0003197 278.8340  81.2457 14.98371972 41804,6950.063,96.104,574.15,569.706,0.0
55308.0,STARLINK-5292,PAYLOAD,2023-10-13 14:00:01,14.98352165,0.0003154,70.0026,58.5075,269.6234,303.3952,-0.0040286,-0.00047863,0.0,0 STARLINK-5292,1 55308U 23010AR  23286.58334491 -.00047863  00000-0 -40286-2 0  9997,2 55308  70.0026  58.5075 0003154 269.6234 303.3952 14.98352165 41928,6950.124,96.106,574.181,569.797,0.0
55308.0,STARLINK-5292,PAYLOAD,2023-10-13 19:27:41,14.98325346,0.0002911,70.0021,57.9356,266.0686,94.014,0.00011268,1.252e-05,0.0,0 STARLINK-5292,1 55308U 23010AR  23286.81089761  .00001252  00000-0  11268-3 0  9999,2 55308  70.0021  57.9356 0002911 266.0686  94.0140 14.98325346 43140,6950.207,96.107,574.095,570.049,0.0
55308.0,STARLINK-5292,PAYLOAD,2023-10-14 13:05:09,14.98333981,0.0002873,70.002,56.0841,273.1291,86.9539,-1.5764e-05,-2.81e-06,0.0,0 STARLINK-5292,1 55308U 23010AR  23287.54525403 -.00000281  00000-0 -15764-4 0  9997,2 55308  70.0020  56.0841 0002873 273.1291  86.9539 14.98333981 43254,6950.181,96.107,574.042,570.049,0.0
55308.0,STARLINK-5292,PAYLOAD,2023-10-14 19:29:41,14.9833778,0.0002694,70.0019,55.4097,267.0904,92.9947,2.2197e-07,-9e-07,0.0,0 STARLINK-5292,1 55308U 23010AR  23287.81229007 -.00000090  00000-0  22197-6 0  9995,2 55308  70.0019  55.4097 0002694 267.0904  92.9947 14.98337780 42106,6950.169,96.107,573.906,570.161,0.0
55308.0,STARLINK-5292,PAYLOAD,2023-10-15 13:07:11,14.98323028,0.0002631,70.0025,53.5594,259.1673,100.919,-1.3846e-05,-2.58e-06,0.0,0 STARLINK-5292,1 55308U 23010AR  23288.54665948 -.00000258  00000-0 -13846-4 0  9990,2 55308  70.0025  53.5594 0002631 259.1673 100.9190 14.98323028 42212,6950.214,96.107,573.908,570.251,0.0
55308.0,STARLINK-5292,PAYLOAD,2023-10-15 14:43:19,14.98321956,0.0002471,70.003,53.3911,251.2208,108.8683,-1.4481e-05,-2.66e-06,0.0,0 STARLINK-5292,1 55308U 23010AR  23288.61342034 -.00000266  00000-0 -14481-4 0  9991,2 55308  70.0030  53.3911 0002471 251.2208 108.8683 14.98321956 43413,6950.218,96.108,573.8,570.365,0.0
55308.0,STARLINK-5292,PAYLOAD,2023-10-15 17:55:35,14.98320663,0.0002548,70.0029,53.0548,256.4748,103.6127,-3.9264e-05,-5.61e-06,0.0,0 STARLINK-5292,1 55308U 23010AR  23288.74694285 -.00000561  00000-0 -39264-4 0  9997,2 55308  70.0029  53.0548 0002548 256.4748 103.6127 14.98320663 43437,6950.222,96.108,573.858,570.316,0.0
55308.0,STARLINK-5292,PAYLOAD,2023-10-16 13:09:12,14.98330321,0.0003103,70.0015,51.0344,272.3037,87.7766,-3.7316e-05,-5.38e-06,0.0,0 STARLINK-5292,1 55308U 23010AR  23289.54805750 -.00000538  00000-0 -37316-4 0  9997,2 55308  70.0015  51.0344 0003103 272.3037  87.7766 14.98330321 42364,6950.192,96.107,574.214,569.9,0.0
55308.0,STARLINK-5292,PAYLOAD,2023-10-16 14:45:20,14.98331202,0.0003098,70.0016,50.8661,272.7622,87.3182,-3.5997e-05,-5.22e-06,0.0,0 STARLINK-5292,1 55308U 23010AR  23289.61481689 -.00000522  00000-0 -35997-4 0  9992,2 55308  70.0016  50.8661 0003098 272.7622  87.3182 14.98331202 43561,6950.189,96.107,574.207,569.901,0.0
55308.0,STARLINK-5292,PAYLOAD,2023-10-16 16:21:27,14.98333726,0.0003,70.0016,50.6973,271.2142,88.8673,1.4375e-05,7.9e-07,0.0,0 STARLINK-5292,1 55308U 23010AR  23289.68157352  .00000079  00000-0  14375-4 0  9998,2 55308  70.0016  50.6973 0003000 271.2142  88.8673 14.98333726 43574,6950.181,96.107,574.131,569.961,0.0
55308.0,STARLINK-5292,PAYLOAD,2023-10-17 11:35:05,14.98325161,0.0002987,70.0017,48.6772,271.4234,88.6583,5.2432e-05,5.33e-06,0.0,0 STARLINK-5292,1 55308U 23010AR  23290.48269842  .00000533  00000-0  52432-4 0  9997,2 55308  70.0017  48.6772 0002987 271.4234  88.6583 14.98325161 43691,6950.208,96.107,574.149,569.997,0.0
55308.0,STARLINK-5292,PAYLOAD,2023-10-18 11:37:05,14.98332635,0.0002887,70.0019,46.1521,271.3957,88.6871,1.1073e-05,3.9e-07,0.0,0 STARLINK-5292,1 55308U 23010AR  23291.48409535  .00000039  00000-0  11073-4 0  9990,2 55308  70.0019  46.1521 0002887 271.3957  88.6871 14.98332635 42657,6950.185,96.107,574.056,570.043,0.0
55308.0,STARLINK-5292,PAYLOAD,2023-10-19 11:39:06,14.98335606,0.0002699,70.0017,43.6278,264.8872,95.1979,6.8664e-05,7.27e-06,0.0,0 STARLINK-5292,1 55308U 23010AR  23292.48548808  .00000727  00000-0  68664-4 0  9990,2 55308  70.0017  43.6278 0002699 264.8872  95.1979 14.98335606 42800,6950.176,96.107,573.916,570.165,0.0
55308.0,STARLINK-5292,PAYLOAD,2023-10-20 10:05:00,14.98321957,0.0002866,70.0014,41.2718,272.3889,87.6942,-0.00016128,-2.016e-05,0.0,0 STARLINK-5292,1 55308U 23010AR  23293.42014073 -.00002016  00000-0 -16128-3 0  9999,2 55308  70.0014  41.2718 0002866 272.3889  87.6942 14.98321957 42943,6950.218,96.108,574.075,570.091,0.0
55308.0,STARLINK-5292,PAYLOAD,2023-10-21 13:19:16,14.98333766,0.0002725,70.0016,38.4118,268.1244,91.9603,4.8368e-05,4.84e-06,0.0,0 STARLINK-5292,1 55308U 23010AR  23294.55504758  .00000484  00000-0  48368-4 0  9995,2 55308  70.0016  38.4118 0002725 268.1244  91.9603 14.98333766 43112,6950.181,96.107,573.94,570.152,0.0
55308.0,STARLINK-5292,PAYLOAD,2023-10-21 16:31:32,14.98339225,0.000294,70.0009,38.0729,274.1121,85.9702,-1.9414e-07,-9.5e-07,0.0,0 STARLINK-5292,1 55308U 23010AR  23294.68856515 -.00000095  00000-0 -19414-6 0  9992,2 55308  70.0009  38.0729 0002940 274.1121  85.9702 14.98339225 44321,6950.164,96.106,574.073,569.986,0.0
55308.0,STARLINK-5292,PAYLOAD,2023-10-22 00:32:13,14.98320013,0.0002566,70.0019,37.2348,277.2062,82.8806,4.5648e-05,4.52e-06,0.0,0 STARLINK-5292,1 55308U 23010AR  23295.02237594  .00000452  00000-0  45648-4 0  9992,2 55308  70.0019  37.2348 0002566 277.2062  82.8806 14.98320013 43181,6950.224,96.108,573.872,570.305,0.0
55308.0,STARLINK-5292,PAYLOAD,2023-10-22 13:21:18,14.98315628,0.0002368,70.0018,35.8845,255.5031,104.5865,3.0028e-05,2.65e-06,0.0,0 STARLINK-5292,1 55308U 23010AR  23295.55646151  .00000265  00000-0  30028-4 0  9991,2 55308  70.0018  35.8845 0002368 255.5031 104.5865 14.98315628 44455,6950.237,96.108,573.748,570.457,0.0
55308.0,STARLINK-5292,PAYLOAD,2023-10-22 16:33:34,14.9831443,0.0002449,70.0019,35.5482,257.3916,102.6969,1.791e-05,1.21e-06,0.0,0 STARLINK-5292,1 55308U 23010AR  23295.68998383  .00000121  00000-0  17910-4 0  9998,2 55308  70.0019  35.5482 0002449 257.3916 102.6969 14.98314430 44478,6950.241,96.108,573.808,570.404,0.0
55308.0,STARLINK-5292,PAYLOAD,2023-10-23 13:23:18,14.98343434,0.0002624,70.0018,33.3616,264.946,95.1399,-8.8645e-05,-1.151e-05,0.0,0 STARLINK-5292,1 55308U 23010AR  23296.55785078 -.00001151  00000-0 -88645-4 0  9999,2 55308  70.0018  33.3616 0002624 264.9460  95.1399 14.98343434 43417,6950.151,96.106,573.84,570.193,0.0
55308.0,STARLINK-5292,PAYLOAD,2023-10-24 10:14:56,14.9679985,0.0006679,70.0013,31.1774,118.4978,241.6854,-0.017572,-0.001962,0.0,0 STARLINK-5292,1 55308U 23010AR  23297.42703806 -.00196200  00000-0 -17572-1 0  9993,2 55308  70.0013  31.1774 0006679 118.4978 241.6854 14.96799850 43547,6954.929,96.205,581.439,572.149,0.0
55308.0,STARLINK-5292,PAYLOAD,2023-10-25 16:00:03,14.98325422,0.0003196,70.0035,28.0435,273.9959,297.9574,0.00056498,6.654e-05,0.0,0 STARLINK-5292,1 55308U 23010AR  23298.66670139  .00006654  00000-0  56498-3 0  9995,2 55308  70.0035  28.0435 0003196 273.9959 297.9574 14.98325422 43733,6950.207,96.107,574.293,569.851,0.0
55308.0,STARLINK-5292,PAYLOAD,2023-10-26 13:29:20,14.98341556,0.00027,70.0016,25.7878,262.71,97.3752,-0.00010545,-1.351e-05,0.0,0 STARLINK-5292,1 55308U 23010AR  23299.56204810 -.00001351  00000-0 -10545-3 0  9998,2 55308  70.0016  25.7878 0002700 262.7100  97.3752 14.98341556 45054,6950.157,96.106,573.899,570.146,0.0
55308.0,STARLINK-5292,PAYLOAD,2023-10-26 15:05:28,14.98335725,0.0002799,70.0017,25.6196,263.7727,96.3113,3.4974e-05,3.24e-06,0.0,0 STARLINK-5292,1 55308U 23010AR  23299.62880769  .00000324  00000-0  34974-4 0  9998,2 55308  70.0017  25.6196 0002799 263.7727  96.3113 14.98335725 45063,6950.175,96.107,573.986,570.095,0.0
55308.0,STARLINK-5292,PAYLOAD,2023-10-27 05:30:41,14.98332243,0.0002685,70.002,24.1046,271.1613,88.9238,9.4196e-05,1.031e-05,0.0,0 STARLINK-5292,1 55308U 23010AR  23300.22964660  .00001031  00000-0  94196-4 0  9998,2 55308  70.0020  24.1046 0002685 271.1613  88.9238 14.98332243 43960,6950.186,96.107,573.917,570.185,0.0
55308.0,STARLINK-5292,PAYLOAD,2023-10-27 11:55:13,14.98338528,0.0003106,70.001,23.4315,274.4135,85.6669,0.00010634,1.176e-05,0.0,0 STARLINK-5292,1 55308U 23010AR  23300.49668031  .00001176  00000-0  10634-3 0  9994,2 55308  70.0010  23.4315 0003106 274.4135  85.6669 14.98338528 45195,6950.167,96.106,574.19,569.873,0.0
55308.0,STARLINK-5292,PAYLOAD,2023-10-28 23:10:11,14.98352653,0.0002424,70.0013,19.726,283.7764,76.3125,-0.00047514,-5.761e-05,0.0,0 STARLINK-5292,1 55308U 23010AR  23301.96541008 -.00005761  00000-0 -47514-3 0  9994,2 55308  70.0013  19.7260 0002424 283.7764  76.3125 14.98352653 44220,6950.123,96.106,573.673,570.303,0.0
